0 THOR BURNER 2A DEB
1 37584U 74015H   13283.79273095  .00001811  00000-0  53941-3 0   945
2 37584 099.1120 120.0027 0108711 124.1745 237.0510 14.41068414327086
0 THOR BURNER 2A DEB
1 37584U 74015H   13289.00011713  .00002243  00000-0  66364-3 0   967
2 37584 099.1271 125.5967 0109561 109.1193 252.1677 14.41093970327830
0 THOR BURNER 2A DEB
1 37584U 74015H   13291.01362473  .00002302  00000-0  68022-3 0   973
2 37584 099.1261 127.7432 0109796 103.2415 258.1085 14.41103882328128
0 THOR BURNER 2A DEB
1 37584U 74015H   13293.79084117  .00002349  00000-0  69371-3 0   986
2 37584 099.1253 130.7062 0109798 094.9538 266.4169 14.41117755328529
